{"type": "FeatureCollection", "features": [ {"type": "Feature", "properties": {"norad_id": 30096, "name": "FENGYUN 1C DEB", "group": "fengyun-1c-debris", "lat": 79.11802792141488, "lon": 2.579145947804216, "alt_km": 833.6598138364634, "timestamp": "2025-12-06T14:35:37.399884+00:00", "meta": {"OBJECT_NAME": "FENGYUN 1C DEB", "OBJECT_ID": "1999-025QZ", "EPOCH": "2025-12-06T04:08:00.939840", "MEAN_MOTION": 14.31672415, "ECCENTRICITY": 0.00789358, "INCLINATION": 99.1483, "RA_OF_ASC_NODE": 59.0729, "ARG_OF_PERICENTER": 251.5873, "MEAN_ANOMALY": 107.6714, "EPHEMERIS_TYPE": 0, "CLASSIFICATION_TYPE": "U", "NORAD_CAT_ID": 30096, "ELEMENT_SET_NO": 999, "REV_AT_EPOCH": 98452, "BSTAR": 0.00056969653, "MEAN_MOTION_DOT": 1.523e-05, "MEAN_MOTION_DDOT": 0}, "tle": {"line1": "1 30096U 99025QZ  25340.17223310  .00001523  00000+0  56970-3 0  9996", "line2": "2 30096  99.1483  59.0729 0078935 251.5873 107.6714 14.31672415984527"}}, "geometry": {"type": "Point", "coordinates": [2.579145947804216, 79.11802792141488]}}, {"type": "Feature", "properties": {"norad_id": 30099, "name": "FENGYUN 1C DEB", "group": "fengyun-1c-debris", "lat": 80.911239116564, "lon": -56.975856768985146, "alt_km": 841.0212088244643, "timestamp": "2025-12-06T14:35:37.399895+00:00", "meta": {"OBJECT_NAME": "FENGYUN 1C DEB", "OBJECT_ID": "1999-025RC", "EPOCH": "2025-12-06T04:11:22.361568", "MEAN_MOTION": 14.25921775, "ECCENTRICITY": 0.00609204, "INCLINATION": 98.5412, "RA_OF_ASC_NODE": 52.6465, "ARG_OF_PERICENTER": 264.1905, "MEAN_ANOMALY": 124.9662, "EPHEMERIS_TYPE": 0, "CLASSIFICATION_TYPE": "U", "NORAD_CAT_ID": 30099, "ELEMENT_SET_NO": 999, "REV_AT_EPOCH": 98096, "BSTAR": 0.00051460107, "MEAN_MOTION_DOT": 1.207e-05, "MEAN_MOTION_DDOT": 0}, "tle": {"line1": "1 30099U 99025RC  25340.17456437  .00001207  00000+0  51460-3 0  9995", "line2": "2 30099  98.5412  52.6465 0060920 264.1905 124.9662 14.25921775980969"}}, "geometry": {"type": "Point", "coordinates": [-56.975856768985146, 80.911239116564]}}, {"type": "Feature", "properties": {"norad_id": 30102, "name": "FENGYUN 1C DEB", "group": "fengyun-1c-debris", "lat": -0.5926605558761835, "lon": -11.225413276823453, "alt_km": 724.1136641510411, "timestamp": "2025-12-06T14:35:37.399905+00:00", "meta": {"OBJECT_NAME": "FENGYUN 1C DEB", "OBJECT_ID": "1999-025RF", "EPOCH": "2025-12-06T06:26:27.155040", "MEAN_MOTION": 14.22114321, "ECCENTRICITY": 0.01421147, "INCLINATION": 98.3792, "RA_OF_ASC_NODE": 348.3643, "ARG_OF_PERICENTER": 19.0999, "MEAN_ANOMALY": 42.7831, "EPHEMERIS_TYPE": 0, "CLASSIFICATION_TYPE": "U", "NORAD_CAT_ID": 30102, "ELEMENT_SET_NO": 999, "REV_AT_EPOCH": 97866, "BSTAR": 0.00064057884, "MEAN_MOTION_DOT": 1.531e-05, "MEAN_MOTION_DDOT": 0}, "tle": {"line1": "1 30102U 99025RF  25340.26836985  .00001531  00000+0  64058-3 0  9997", "line2": "2 30102  98.3792 348.3643 0142114  19.0999  42.7831 14.22114321978669"}}, "geometry": {"type": "Point", "coordinates": [-11.225413276823453, -0.5926605558761835]}}, {"type": "Feature", "properties": {"norad_id": 30103, "name": "FENGYUN 1C DEB", "group": "fengyun-1c-debris", "lat": -58.930377042225224, "lon": -22.55134241120241, "alt_km": 859.9358292825018, "timestamp": "2025-12-06T14:35:37.399915+00:00", "meta": {"OBJECT_NAME": "FENGYUN 1C DEB", "OBJECT_ID": "1999-025RG", "EPOCH": "2025-12-05T22:16:58.204416", "MEAN_MOTION": 14.24836196, "ECCENTRICITY": 0.00639081, "INCLINATION": 99.2442, "RA_OF_ASC_NODE": 321.0513, "ARG_OF_PERICENTER": 139.1197, "MEAN_ANOMALY": 276.4049, "EPHEMERIS_TYPE": 0, "CLASSIFICATION_TYPE": "U", "NORAD_CAT_ID": 30103, "ELEMENT_SET_NO": 999, "REV_AT_EPOCH": 97822, "BSTAR": 0.00070584705, "MEAN_MOTION_DOT": 1.634e-05, "MEAN_MOTION_DDOT": 0}, "tle": {"line1": "1 30103U 99025RG  25339.92845144  .00001634  00000+0  70585-3 0  9992", "line2": "2 30103  99.2442 321.0513 0063908 139.1197 276.4049 14.24836196978225"}}, "geometry": {"type": "Point", "coordinates": [-22.55134241120241, -58.930377042225224]}}, {"type": "Feature", "properties": {"norad_id": 30104, "name": "FENGYUN 1C DEB", "group": "fengyun-1c-debris", "lat": 49.92774534035462, "lon": 8.021883817067971, "alt_km": 748.8102353955865, "timestamp": "2025-12-06T14:35:37.399925+00:00", "meta": {"OBJECT_NAME": "FENGYUN 1C DEB", "OBJECT_ID": "1999-025RH", "EPOCH": "2025-12-06T08:04:38.645760", "MEAN_MOTION": 14.25635661, "ECCENTRICITY": 0.00738065, "INCLINATION": 98.3593, "RA_OF_ASC_NODE": 177.697, "ARG_OF_PERICENTER": 126.9038, "MEAN_ANOMALY": 49.6266, "EPHEMERIS_TYPE": 0, "CLASSIFICATION_TYPE": "U", "NORAD_CAT_ID": 30104, "ELEMENT_SET_NO": 999, "REV_AT_EPOCH": 97801, "BSTAR": 0.0013273618, "MEAN_MOTION_DOT": 3.197e-05, "MEAN_MOTION_DDOT": 0}, "tle": {"line1": "1 30104U 99025RH  25340.33655840  .00003197  00000+0  13274-2 0  9999", "line2": "2 30104  98.3593 177.6970 0073806 126.9038  49.6266 14.25635661978014"}}, "geometry": {"type": "Point", "coordinates": [8.021883817067971, 49.92774534035462]}}, {"type": "Feature", "properties": {"norad_id": 30105, "name": "FENGYUN 1C DEB", "group": "fengyun-1c-debris", "lat": -29.846122332033545, "lon": -28.21009003541637, "alt_km": 900.1713961769237, "timestamp": "2025-12-06T14:35:37.399936+00:00", "meta": {"OBJECT_NAME": "FENGYUN 1C DEB", "OBJECT_ID": "1999-025RJ", "EPOCH": "2025-12-05T21:50:33.249120", "MEAN_MOTION": 14.21380627, "ECCENTRICITY": 0.01998274, "INCLINATION": 98.5931, "RA_OF_ASC_NODE": 326.1329, "ARG_OF_PERICENTER": 93.6535, "MEAN_ANOMALY": 268.7517, "EPHEMERIS_TYPE": 0, "CLASSIFICATION_TYPE": "U", "NORAD_CAT_ID": 30105, "ELEMENT_SET_NO": 999, "REV_AT_EPOCH": 97665, "BSTAR": 0.00047931079, "MEAN_MOTION_DOT": 1.238e-05, "MEAN_MOTION_DDOT": 0}, "tle": {"line1": "1 30105U 99025RJ  25339.91010705  .00001238  00000+0  47931-3 0  9999", "line2": "2 30105  98.5931 326.1329 0199827  93.6535 268.7517 14.21380627976652"}}, "geometry": {"type": "Point", "coordinates": [-28.21009003541637, -29.846122332033545]}}, {"type": "Feature", "properties": {"norad_id": 30106, "name": "FENGYUN 1C DEB", "group": "fengyun-1c-debris", "lat": -2.3623046961579544, "lon": -112.40637736814335, "alt_km": 643.5347075352211, "timestamp": "2025-12-06T14:35:37.399946+00:00", "meta": {"OBJECT_NAME": "FENGYUN 1C DEB", "OBJECT_ID": "1999-025RK", "EPOCH": "2025-12-06T05:37:17.406336", "MEAN_MOTION": 14.84377209, "ECCENTRICITY": 0.00476498, "INCLINATION": 98.9239, "RA_OF_ASC_NODE": 246.8043, "ARG_OF_PERICENTER": 220.4985, "MEAN_ANOMALY": 300.2987, "EPHEMERIS_TYPE": 0, "CLASSIFICATION_TYPE": "U", "NORAD_CAT_ID": 30106, "ELEMENT_SET_NO": 999, "REV_AT_EPOCH": 98448, "BSTAR": 0.0075058802, "MEAN_MOTION_DOT": 0.00064847, "MEAN_MOTION_DDOT": 0}, "tle": {"line1": "1 30106U 99025RK  25340.23422924  .00064847  00000+0  75059-2 0  9993", "line2": "2 30106  98.9239 246.8043 0047649 220.4985 300.2987 14.84377209984486"}}, "geometry": {"type": "Point", "coordinates": [-112.40637736814335, -2.3623046961579544]}}, {"type": "Feature", "properties": {"norad_id": 30107, "name": "FENGYUN 1C DEB", "group": "fengyun-1c-debris", "lat": 34.83575617842677, "lon": 31.360184168912806, "alt_km": 860.0650011996831, "timestamp": "2025-12-06T14:35:37.399956+00:00", "meta": {"OBJECT_NAME": "FENGYUN 1C DEB", "OBJECT_ID": "1999-025RL", "EPOCH": "2025-12-05T21:27:00.787968", "MEAN_MOTION": 14.14416495, "ECCENTRICITY": 0.01262628, "INCLINATION": 98.848, "RA_OF_ASC_NODE": 36.8758, "ARG_OF_PERICENTER": 295.2626, "MEAN_ANOMALY": 63.5506, "EPHEMERIS_TYPE": 0, "CLASSIFICATION_TYPE": "U", "NORAD_CAT_ID": 30107, "ELEMENT_SET_NO": 999, "REV_AT_EPOCH": 97464, "BSTAR": 0.00017772667, "MEAN_MOTION_DOT": 3.22e-06, "MEAN_MOTION_DDOT": 0}, "tle": {"line1": "1 30107U 99025RL  25339.89375912  .00000322  00000+0  17773-3 0  9996", "line2": "2 30107  98.8480  36.8758 0126262 295.2626  63.5506 14.14416495974642"}}, "geometry": {"type": "Point", "coordinates": [31.360184168912806, 34.83575617842677]}}, {"type": "Feature", "properties": {"norad_id": 30108, "name": "FENGYUN 1C DEB", "group": "fengyun-1c-debris", "lat": -55.44052484521345, "lon": 133.83395129881677, "alt_km": 978.5849936349723, "timestamp": "2025-12-06T14:35:37.399966+00:00", "meta": {"OBJECT_NAME": "FENGYUN 1C DEB", "OBJECT_ID": "1999-025RM", "EPOCH": "2025-12-06T05:04:43.167072", "MEAN_MOTION": 14.17153507, "ECCENTRICITY": 0.01978909, "INCLINATION": 98.6598, "RA_OF_ASC_NODE": 326.2301, "ARG_OF_PERICENTER": 40.8815, "MEAN_ANOMALY": 334.6112, "EPHEMERIS_TYPE": 0, "CLASSIFICATION_TYPE": "U", "NORAD_CAT_ID": 30108, "ELEMENT_SET_NO": 999, "REV_AT_EPOCH": 97506, "BSTAR": 0.00057803301, "MEAN_MOTION_DOT": 1.368e-05, "MEAN_MOTION_DDOT": 0}, "tle": {"line1": "1 30108U 99025RM  25340.21161073  .00001368  00000+0  57803-3 0  9995", "line2": "2 30108  98.6598 326.2301 0197890  40.8815 334.6112 14.17153507975067"}}, "geometry": {"type": "Point", "coordinates": [133.83395129881677, -55.44052484521345]}}, {"type": "Feature", "properties": {"norad_id": 30109, "name": "FENGYUN 1C DEB", "group": "fengyun-1c-debris", "lat": -18.332829066256, "lon": -22.78146551109294, "alt_km": 839.481162729805, "timestamp": "2025-12-06T14:35:37.399977+00:00", "meta": {"OBJECT_NAME": "FENGYUN 1C DEB", "OBJECT_ID": "1999-025RN", "EPOCH": "2025-12-05T22:01:57.024768", "MEAN_MOTION": 14.17530492, "ECCENTRICITY": 0.01671705, "INCLINATION": 98.5075, "RA_OF_ASC_NODE": 333.7146, "ARG_OF_PERICENTER": 252.2231, "MEAN_ANOMALY": 168.0175, "EPHEMERIS_TYPE": 0, "CLASSIFICATION_TYPE": "U", "NORAD_CAT_ID": 30109, "ELEMENT_SET_NO": 999, "REV_AT_EPOCH": 97455, "BSTAR": 0.00066565549, "MEAN_MOTION_DOT": 1.507e-05, "MEAN_MOTION_DDOT": 0}, "tle": {"line1": "1 30109U 99025RN  25339.91802112  .00001507  00000+0  66566-3 0  9998", "line2": "2 30109  98.5075 333.7146 0167170 252.2231 168.0175 14.17530492974559"}}, "geometry": {"type": "Point", "coordinates": [-22.78146551109294, -18.332829066256]}}]}